[{"OBJECT_NAME":"GRUS-1E","OBJECT_ID":"2021-022D","EPOCH":"2026-03-09T21:59:56.793984","MEAN_MOTION":14.99580708,"ECCENTRICITY":0.00128752,"INCLINATION":97.5572,"RA_OF_ASC_NODE":316.384,"ARG_OF_PERICENTER":314.1526,"MEAN_ANOMALY":45.8638,"EPHEMERIS_TYPE":0,"CLASSIFICATION_TYPE":"U","NORAD_CAT_ID":47935,"ELEMENT_SET_NO":999,"REV_AT_EPOCH":27107,"BSTAR":0.00017718433,"MEAN_MOTION_DOT":2.125e-5,"MEAN_MOTION_DDOT":0},{"OBJECT_NAME":"STARLINK-5495","OBJECT_ID":"2023-021H","EPOCH":"2026-03-09T16:57:15.087168","MEAN_MOTION":14.98345366,"ECCENTRICITY":0.00035922,"INCLINATION":70.0007,"RA_OF_ASC_NODE":184.4286,"ARG_OF_PERICENTER":276.1302,"MEAN_ANOMALY":83.9448,"EPHEMERIS_TYPE":0,"CLASSIFICATION_TYPE":"U","NORAD_CAT_ID":55635,"ELEMENT_SET_NO":999,"REV_AT_EPOCH":16879,"BSTAR":1.6539935e-5,"MEAN_MOTION_DOT":1.04e-6,"MEAN_MOTION_DDOT":0}]
